{
  "type": "FeatureCollection",
  "features": [
    {
      "type": "Feature",
      "properties": {
        "norad_id": 66491,
        "name": "STARLINK-35663",
        "group": "last-30-days",
        "lat": 29.870046034622906,
        "lon": -32.09537898009397,
        "alt_km": 340.9219520292281,
        "timestamp": "2025-12-02T10:50:46.052484+00:00",
        "meta_object_name": "STARLINK-35663",
        "meta_object_id": "2025-263G",
        "meta_epoch": "2025-12-02T04:00:03.998880",
        "meta_mean_motion": 15.75038081,
        "meta_eccentricity": 0.0002182,
        "meta_inclination": 42.999,
        "meta_ra_of_asc_node": 187.6866,
        "meta_arg_of_pericenter": 274.8281,
        "meta_mean_anomaly": 39.041,
        "meta_ephemeris_type": 0,
        "meta_classification_type": "U",
        "meta_norad_cat_id": 66491,
        "meta_element_set_no": 999,
        "meta_rev_at_epoch": 393,
        "meta_bstar": 7.6538e-05,
        "meta_mean_motion_dot": 0.00011295,
        "meta_mean_motion_ddot": 0,
        "tle_line1": "1 66491U 25263G   25336.16671295  .00011295  00000+0  76538-4 0  9990",
        "tle_line2": "2 66491  42.9990 187.6866 0002182 274.8281  39.0410 15.75038081  3938"
      },
      "geometry": {
        "type": "Point",
        "coordinates": [
          -32.09537898009397,
          29.870046034622906
        ]
      }
    },
    {
      "type": "Feature",
      "properties": {
        "norad_id": 66492,
        "name": "STARLINK-35673",
        "group": "last-30-days",
        "lat": 28.82577786322179,
        "lon": -30.244199116132297,
        "alt_km": 340.9377279200735,
        "timestamp": "2025-12-02T10:50:46.052494+00:00",
        "meta_object_name": "STARLINK-35673",
        "meta_object_id": "2025-263H",
        "meta_epoch": "2025-12-02T04:00:03.998880",
        "meta_mean_motion": 15.75062666,
        "meta_eccentricity": 0.0001934,
        "meta_inclination": 43.0029,
        "meta_ra_of_asc_node": 187.6818,
        "meta_arg_of_pericenter": 272.7276,
        "meta_mean_anomaly": 43.0579,
        "meta_ephemeris_type": 0,
        "meta_classification_type": "U",
        "meta_norad_cat_id": 66492,
        "meta_element_set_no": 999,
        "meta_rev_at_epoch": 393,
        "meta_bstar": -0.00033359,
        "meta_mean_motion_dot": -0.00051463,
        "meta_mean_motion_ddot": 0,
        "tle_line1": "1 66492U 25263H   25336.16671295 -.00051463  00000+0 -33359-3 0  9997",
        "tle_line2": "2 66492  43.0029 187.6818 0001934 272.7276  43.0579 15.75062666  3933"
      },
      "geometry": {
        "type": "Point",
        "coordinates": [
          -30.244199116132297,
          28.82577786322179
        ]
      }
    },
    {
      "type": "Feature",
      "properties": {
        "norad_id": 66493,
        "name": "STARLINK-35597",
        "group": "last-30-days",
        "lat": 27.74453185268174,
        "lon": -28.421925501601212,
        "alt_km": 341.40434495741283,
        "timestamp": "2025-12-02T10:50:46.052504+00:00",
        "meta_object_name": "STARLINK-35597",
        "meta_object_id": "2025-263J",
        "meta_epoch": "2025-12-02T04:00:03.998880",
        "meta_mean_motion": 15.74993257,
        "meta_eccentricity": 0.0002067,
        "meta_inclination": 42.9989,
        "meta_ra_of_asc_node": 187.6766,
        "meta_arg_of_pericenter": 285.6579,
        "meta_mean_anomaly": 32.1108,
        "meta_ephemeris_type": 0,
        "meta_classification_type": "U",
        "meta_norad_cat_id": 66493,
        "meta_element_set_no": 999,
        "meta_rev_at_epoch": 393,
        "meta_bstar": 0.00015124,
        "meta_mean_motion_dot": 0.00022772,
        "meta_mean_motion_ddot": 0,
        "tle_line1": "1 66493U 25263J   25336.16671295  .00022772  00000+0  15124-3 0  9997",
        "tle_line2": "2 66493  42.9989 187.6766 0002067 285.6579  32.1108 15.74993257  3931"
      },
      "geometry": {
        "type": "Point",
        "coordinates": [
          -28.421925501601212,
          27.74453185268174
        ]
      }
    },
    {
      "type": "Feature",
      "properties": {
        "norad_id": 66494,
        "name": "STARLINK-35689",
        "group": "last-30-days",
        "lat": 30.8830778671048,
        "lon": -33.97026790814968,
        "alt_km": 340.5664952443358,
        "timestamp": "2025-12-02T10:50:46.052516+00:00",
        "meta_object_name": "STARLINK-35689",
        "meta_object_id": "2025-263K",
        "meta_epoch": "2025-12-02T04:00:03.998880",
        "meta_mean_motion": 15.75059412,
        "meta_eccentricity": 0.0001925,
        "meta_inclination": 42.9989,
        "meta_ra_of_asc_node": 187.6914,
        "meta_arg_of_pericenter": 266.9372,
        "meta_mean_anomaly": 45.0165,
        "meta_ephemeris_type": 0,
        "meta_classification_type": "U",
        "meta_norad_cat_id": 66494,
        "meta_element_set_no": 999,
        "meta_rev_at_epoch": 393,
        "meta_bstar": -0.00028803,
        "meta_mean_motion_dot": -0.00044531,
        "meta_mean_motion_ddot": 0,
        "tle_line1": "1 66494U 25263K   25336.16671295 -.00044531  00000+0 -28803-3 0  9995",
        "tle_line2": "2 66494  42.9989 187.6914 0001925 266.9372  45.0165 15.75059412  3935"
      },
      "geometry": {
        "type": "Point",
        "coordinates": [
          -33.97026790814968,
          30.8830778671048
        ]
      }
    },
    {
      "type": "Feature",
      "properties": {
        "norad_id": 66495,
        "name": "STARLINK-35832",
        "group": "last-30-days",
        "lat": 26.666282898247392,
        "lon": -26.672877443403888,
        "alt_km": 340.9197217910669,
        "timestamp": "2025-12-02T10:50:46.052526+00:00",
        "meta_object_name": "STARLINK-35832",
        "meta_object_id": "2025-263L",
        "meta_epoch": "2025-12-02T04:00:03.998880",
        "meta_mean_motion": 15.75071145,
        "meta_eccentricity": 0.0001709,
        "meta_inclination": 42.9987,
        "meta_ra_of_asc_node": 187.6717,
        "meta_arg_of_pericenter": 259.9389,
        "meta_mean_anomaly": 59.6744,
        "meta_ephemeris_type": 0,
        "meta_classification_type": "U",
        "meta_norad_cat_id": 66495,
        "meta_element_set_no": 999,
        "meta_rev_at_epoch": 393,
        "meta_bstar": -0.00041763,
        "meta_mean_motion_dot": -0.00064233,
        "meta_mean_motion_ddot": 0,
        "tle_line1": "1 66495U 25263L   25336.16671295 -.00064233  00000+0 -41763-3 0  9997",
        "tle_line2": "2 66495  42.9987 187.6717 0001709 259.9389  59.6744 15.75071145  3936"
      },
      "geometry": {
        "type": "Point",
        "coordinates": [
          -26.672877443403888,
          26.666282898247392
        ]
      }
    },
    {
      "type": "Feature",
      "properties": {
        "norad_id": 66496,
        "name": "STARLINK-35909",
        "group": "last-30-days",
        "lat": 25.5517367212911,
        "lon": -24.93196908059549,
        "alt_km": 341.32434076048594,
        "timestamp": "2025-12-02T10:50:46.052536+00:00",
        "meta_object_name": "STARLINK-35909",
        "meta_object_id": "2025-263M",
        "meta_epoch": "2025-12-02T04:00:03.998880",
        "meta_mean_motion": 15.75070286,
        "meta_eccentricity": 0.0001774,
        "meta_inclination": 42.9988,
        "meta_ra_of_asc_node": 187.668,
        "meta_arg_of_pericenter": 274.927,
        "meta_mean_anomaly": 46.6032,
        "meta_ephemeris_type": 0,
        "meta_classification_type": "U",
        "meta_norad_cat_id": 66496,
        "meta_element_set_no": 999,
        "meta_rev_at_epoch": 393,
        "meta_bstar": -0.00036687,
        "meta_mean_motion_dot": -0.00056534,
        "meta_mean_motion_ddot": 0,
        "tle_line1": "1 66496U 25263M   25336.16671295 -.00056534  00000+0 -36687-3 0  9992",
        "tle_line2": "2 66496  42.9988 187.6680 0001774 274.9270  46.6032 15.75070286  3936"
      },
      "geometry": {
        "type": "Point",
        "coordinates": [
          -24.93196908059549,
          25.5517367212911
        ]
      }
    },
    {
      "type": "Feature",
      "properties": {
        "norad_id": 66497,
        "name": "STARLINK-35899",
        "group": "last-30-days",
        "lat": 24.422260650980768,
        "lon": -23.233504008795805,
        "alt_km": 341.43135672811877,
        "timestamp": "2025-12-02T10:50:46.052546+00:00",
        "meta_object_name": "STARLINK-35899",
        "meta_object_id": "2025-263N",
        "meta_epoch": "2025-12-02T04:00:03.998880",
        "meta_mean_motion": 15.75033016,
        "meta_eccentricity": 0.0001773,
        "meta_inclination": 42.9988,
        "meta_ra_of_asc_node": 187.6623,
        "meta_arg_of_pericenter": 270.4826,
        "meta_mean_anomaly": 52.9844,
        "meta_ephemeris_type": 0,
        "meta_classification_type": "U",
        "meta_norad_cat_id": 66497,
        "meta_element_set_no": 999,
        "meta_rev_at_epoch": 393,
        "meta_bstar": -3.9577e-05,
        "meta_mean_motion_dot": -6.551e-05,
        "meta_mean_motion_ddot": 0,
        "tle_line1": "1 66497U 25263N   25336.16671295 -.00006551  00000+0 -39577-4 0  9999",
        "tle_line2": "2 66497  42.9988 187.6623 0001773 270.4826  52.9844 15.75033016  3932"
      },
      "geometry": {
        "type": "Point",
        "coordinates": [
          -23.233504008795805,
          24.422260650980768
        ]
      }
    }
  ]
}